$$SOE
2460721.500000000, A.D. 2025-Feb-15 00:00:00.0000, 7.289543375865953E+07, -1.606116652066787E+08, -9.396891746646062E+07,
2460728.500000000, A.D. 2025-Feb-22 00:00:00.0000, 8.593576426792312E+07, -1.554634826663353E+08, -9.217396761642221E+07,
2460735.500000000, A.D. 2025-Mar-01 00:00:00.0000, 9.845576662200086E+07, -1.493739509203068E+08, -8.982087092684418E+07,
2460742.500000000, A.D. 2025-Mar-08 00:00:00.0000, 1.103801259531962E+08, -1.423807747114114E+08, -8.692437233180413E+07,
2460749.500000000, A.D. 2025-Mar-15 00:00:00.0000, 1.216351152901934E+08, -1.345242806853279E+08, -8.350078330000657E+07,
2460756.500000000, A.D. 2025-Mar-22 00:00:00.0000, 1.321483532093233E+08, -1.258475993671277E+08, -7.956806274923214E+07,
2460763.500000000, A.D. 2025-Mar-29 00:00:00.0000, 1.418486079756107E+08, -1.163969094837490E+08, -7.514593483321697E+07,
2460770.500000000, A.D. 2025-Apr-05 00:00:00.0000, 1.506656547809630E+08, -1.062217411546816E+08, -7.025604369041173E+07,
2460777.500000000, A.D. 2025-Apr-12 00:00:00.0000, 1.585301922549396E+08, -9.537533821414801E+07, -6.492214581593008E+07,
2460784.500000000, A.D. 2025-Apr-19 00:00:00.0000, 1.653738284912819E+08, -8.391508127029148E+07, -5.917034133531436E+07,
2460791.500000000, A.D. 2025-Apr-26 00:00:00.0000, 1.711291501894248E+08, -7.190297234557745E+07, -5.302934562873630E+07,
2460798.500000000, A.D. 2025-May-03 00:00:00.0000, 1.757298918760093E+08, -5.940618105069174E+07, -4.653080263389312E+07,
2460805.500000000, A.D. 2025-May-10 00:00:00.0000, 1.791112262900605E+08, -4.649765078507498E+07, -3.970964067704363E+07,
2460812.500000000, A.D. 2025-May-17 00:00:00.0000, 1.812102019317370E+08, -3.325676095141022E+07, -3.260447067043153E+07,
2460819.500000000, A.D. 2025-May-24 00:00:00.0000, 1.819663594448569E+08, -1.977003716430987E+07, -2.525802473579285E+07,
2460826.500000000, A.D. 2025-May-31 00:00:00.0000, 1.813225646870855E+08, -6.131894997860457E+06, -1.771763043935008E+07,
2460833.500000000, A.D. 2025-Jun-07 00:00:00.0000, 1.792261017100212E+08, 7.554606855019467E+06, -1.003571142145194E+07,
2460840.500000000, A.D. 2025-Jun-14 00:00:00.0000, 1.756300726071612E+08, 2.117703825044292E+07, -2.270299017247964E+06,
2460847.500000000, A.D. 2025-Jun-21 00:00:00.0000, 1.704951584438814E+08, 3.461294193490326E+07, 5.514468667727947E+06,
2460854.500000000, A.D. 2025-Jun-28 00:00:00.0000, 1.637917974670956E+08, 4.772932473110145E+07, 1.324789563648020E+07,
2460861.500000000, A.D. 2025-Jul-05 00:00:00.0000, 1.555028258954643E+08, 6.038239672751454E+07, 2.085237577194228E+07,
2460868.500000000, A.D. 2025-Jul-12 00:00:00.0000, 1.456266102657920E+08, 7.241768826480100E+07, 2.824320883827845E+07,
2460875.500000000, A.D. 2025-Jul-19 00:00:00.0000, 1.341806695240700E+08, 8.367070957130134E+07, 3.532867564560774E+07,
2460882.500000000, A.D. 2025-Jul-26 00:00:00.0000, 1.212057314362357E+08, 9.396835221066925E+07, 4.201048626231340E+07,
2460889.500000000, A.D. 2025-Aug-02 00:00:00.0000, 1.067700868790346E+08, 1.031312564526744E+08, 4.818473541570912E+07,
2460896.500000000, A.D. 2025-Aug-09 00:00:00.0000, 9.097399405924128E+07, 1.109773722502688E+08, 5.374351005444215E+07,
2460903.500000000, A.D. 2025-Aug-16 00:00:00.0000, 7.395374532876216E+07, 1.173269070792654E+08, 5.857728579384655E+07,
2460910.500000000, A.D. 2025-Aug-23 00:00:00.0000, 5.588485555956047E+07, 1.220087619089734E+08, 6.257821007252705E+07,
2460917.500000000, A.D. 2025-Aug-30 00:00:00.0000, 3.698369231197352E+07, 1.248683894167741E+08, 6.564428883044682E+07,
2460924.500000000, A.D. 2025-Sep-06 00:00:00.0000, 1.750679114318582E+07, 1.257767590923998E+08, 6.768436308136529E+07,
2460931.500000000, A.D. 2025-Sep-13 00:00:00.0000, -2.252851050327156E+06, 1.246397986723346E+08, 6.862358644481422E+07,
2460938.500000000, A.D. 2025-Sep-20 00:00:00.0000, -2.197297510403319E+07, 1.214073655055790E+08, 6.840892202519304E+07,
2460945.500000000, A.D. 2025-Sep-27 00:00:00.0000, -4.131278681083986E+07, 1.160805762801275E+08, 6.701401685487515E+07,
2460952.500000000, A.D. 2025-Oct-04 00:00:00.0000, -5.992665426303753E+07, 1.087162851771289E+08, 6.444274503937098E+07,
2460959.500000000, A.D. 2025-Oct-11 00:00:00.0000, -7.747958451540135E+07, 9.942773769055390E+07, 6.073079153844491E+07,
2460966.500000000, A.D. 2025-Oct-18 00:00:00.0000, -9.366280580488047E+07, 8.838094288618124E+07, 5.594489306532582E+07,
2460973.500000000, A.D. 2025-Oct-25 00:00:00.0000, -1.082076219358608E+08, 7.578699554209235E+07, 5.017971790030120E+07,
2460980.500000000, A.D. 2025-Nov-01 00:00:00.0000, -1.208959501372857E+08, 6.189125736685799E+07, 4.355275794407874E+07,
2460987.500000000, A.D. 2025-Nov-08 00:00:00.0000, -1.315665443931130E+08, 4.696077965801241E+07, 3.619791324554636E+07,
2460994.500000000, A.D. 2025-Nov-15 00:00:00.0000, -1.401166649972966E+08, 3.127149784250298E+07, 2.825859107784748E+07,
2461001.500000000, A.D. 2025-Nov-22 00:00:00.0000, -1.464996637781189E+08, 1.509654942116263E+07, 1.988109932428592E+07,
2461008.500000000, A.D. 2025-Nov-29 00:00:00.0000, -1.507194455171385E+08, -1.303337899826577E+06, 1.120892958242276E+07,
2461015.500000000, A.D. 2025-Dec-06 00:00:00.0000, -1.528229732156513E+08, -1.768692781623003E+07, 2.378274779659797E+06,
2461022.500000000, A.D. 2025-Dec-13 00:00:00.0000, -1.528919332628652E+08, -3.383700503400982E+07, -6.485117142168958E+06,
2461029.500000000, A.D. 2025-Dec-20 00:00:00.0000, -1.510344598929109E+08, -4.956263571177840E+07, -1.526783824929364E+07,
2461036.500000000, A.D. 2025-Dec-27 00:00:00.0000, -1.473775429856017E+08, -6.469960537490841E+07, -2.386966150864416E+07,
2461043.500000000, A.D. 2026-Jan-03 00:00:00.0000, -1.420604733146758E+08, -7.910952886373344E+07, -3.220357076620113E+07,
2461050.500000000, A.D. 2026-Jan-10 00:00:00.0000, -1.352294600266830E+08, -9.267809066957182E+07, -4.019522037264498E+07,
2461057.500000000, A.D. 2026-Jan-17 00:00:00.0000, -1.270334031854603E+08, -1.053127945910952E+08, -4.778203387768462E+07,
2461064.500000000, A.D. 2026-Jan-24 00:00:00.0000, -1.176207131578430E+08, -1.169405099143241E+08, -5.491210814556244E+07,
2461071.500000000, A.D. 2026-Jan-31 00:00:00.0000, -1.071370250407210E+08, -1.275050153897465E+08, -6.154304542747653E+07,
2461078.500000000, A.D. 2026-Feb-07 00:00:00.0000, -9.572364527992328E+07, -1.369646706748890E+08, -6.764079744565374E+07,
2461085.500000000, A.D. 2026-Feb-14 00:00:00.0000, -8.351657602032775E+07, -1.452902899585781E+08, -7.317857473276836E+07,
2461092.500000000, A.D. 2026-Feb-21 00:00:00.0000, -7.064598114941999E+07, -1.524632526220462E+08, -7.813585140548995E+07,
2461099.500000000, A.D. 2026-Feb-28 00:00:00.0000, -5.723598162791366E+07, -1.584738588931922E+08, -8.249747915944248E+07,
2461106.500000000, A.D. 2026-Mar-07 00:00:00.0000, -4.340469063221651E+07, -1.633199251352381E+08, -8.625291367950720E+07,
2461113.500000000, A.D. 2026-Mar-14 00:00:00.0000, -2.926441398489371E+07, -1.670056045162003E+08, -8.939555047661820E+07,
2461120.500000000, A.D. 2026-Mar-21 00:00:00.0000, -1.492195915223506E+07, -1.695404091654522E+08, -9.192216289994904E+07,
2461127.500000000, A.D. 2026-Mar-28 00:00:00.0000, -4.790135757926657E+05, -1.709384105328621E+08, -9.383243310229328E+07,
2461134.500000000, A.D. 2026-Apr-04 00:00:00.0000, 1.396743748460637E+07, -1.712175973406542E+08, -9.512856654344401E+07,
2461141.500000000, A.D. 2026-Apr-11 00:00:00.0000, 2.832467596230336E+07, -1.703993716932902E+08, -9.581498096579355E+07,
2461148.500000000, A.D. 2026-Apr-18 00:00:00.0000, 4.250381482676691E+07, -1.685081658765716E+08, -9.589806150993897E+07,
2461155.500000000, A.D. 2026-Apr-25 00:00:00.0000, 5.641937202318040E+07, -1.655711648570784E+08, -9.538597462434420E+07,
2461162.500000000, A.D. 2026-May-02 00:00:00.0000, 6.998886250710870E+07, -1.616181220144602E+08, -9.428853452919330E+07,
2461169.500000000, A.D. 2026-May-09 00:00:00.0000, 8.313241426126677E+07, -1.566812580311242E+08, -9.261711714904162E+07,
2461176.500000000, A.D. 2026-May-16 00:00:00.0000, 9.577241303844868E+07, -1.507952348323961E+08, -9.038461752660915E+07,
2461183.500000000, A.D. 2026-May-23 00:00:00.0000, 1.078331795331059E+08, -1.439971975284143E+08, -8.760544761995542E+07,
2461190.500000000, A.D. 2026-May-30 00:00:00.0000, 1.192406804180151E+08, -1.363268797182387E+08, -8.429557216157079E+07,
2461197.500000000, A.D. 2026-Jun-06 00:00:00.0000, 1.299222767989057E+08, -1.278267725898135E+08, -8.047258155494839E+07,
2461204.500000000, A.D. 2026-Jun-13 00:00:00.0000, 1.398065184350353E+08, -1.185423560426555E+08, -7.615580163403919E+07,
2461211.500000000, A.D. 2026-Jun-20 00:00:00.0000, 1.488229891623536E+08, -1.085223883765701E+08, -7.136644018408547E+07,
2461218.500000000, A.D. 2026-Jun-27 00:00:00.0000, 1.569022094691699E+08, -9.781925512493074E+07, -6.612777083459858E+07,
2461225.500000000, A.D. 2026-Jul-04 00:00:00.0000, 1.639756060835450E+08, -8.648937848405513E+07, -6.046535553948416E+07,
2461232.500000000, A.D. 2026-Jul-11 00:00:00.0000, 1.699755614512668E+08, -7.459368817245561E+07, -5.440730706277108E+07,
2461239.500000000, A.D. 2026-Jul-18 00:00:00.0000, 1.748355592006684E+08, -6.219815387268566E+07, -4.798459284226651E+07,
2461246.500000000, A.D. 2026-Jul-25 00:00:00.0000, 1.784904456716585E+08, -4.937437816307956E+07, -4.123138122581451E+07,
2461253.500000000, A.D. 2026-Aug-01 00:00:00.0000, 1.808768323600986E+08, -3.620024662119865E+07, -3.418543020363996E+07,
2461260.500000000, A.D. 2026-Aug-08 00:00:00.0000, 1.819336696725400E+08, -2.276062811774591E+07, -2.688851717146686E+07,
2461267.500000000, A.D. 2026-Aug-15 00:00:00.0000, 1.816030284493260E+08, -9.148112231346151E+06, -1.938690564337093E+07,
2461274.500000000, A.D. 2026-Aug-22 00:00:00.0000, 1.798311307959583E+08, 4.536238155877324E+06, -1.173184078559657E+07,
2461281.500000000, A.D. 2026-Aug-29 00:00:00.0000, 1.765696760903323E+08, 1.818214956559069E+07, -3.980060013999435E+06,
2461288.500000000, A.D. 2026-Sep-05 00:00:00.0000, 1.717775166374392E+08, 3.166946019001447E+07, 3.805702655592635E+06,
$$EOE